INTELSAT 902 (IS-902)   
1 26900U 01039A   26164.03911022 -.00000275  00000+0  00000+0 0  9990
2 26900   6.1073  71.8345 0004526   6.2308 147.2710  1.00271498 90654
INTELSAT 904 (IS-904)   
1 27380U 02007A   26164.05027513 -.00000218  00000+0  00000+0 0  9991
2 27380   6.9094  69.2332 0006504   3.3250 175.4234  1.00271515 51726
DIRECTV 5 (TEMPO 1)     
1 27426U 02023A   26164.19975383 -.00000048  00000+0  00000+0 0  9993
2 27426   4.8673  75.3590 0003220  20.0014 127.9653  1.00271407 88083
INTELSAT 905 (IS-905)   
1 27438U 02027A   26164.27264481  .00000101  00000+0  00000+0 0  9998
2 27438   6.7435  69.8461 0003813  19.8522 132.8272  1.00271936 51322
GALAXY 3C (G-3C)        
1 27445U 02030A   26164.13397565 -.00000142  00000+0  00000+0 0  9991
2 27445   3.7203  78.0309 0001571  34.8216 101.9819  1.00270875 46452
INTELSAT 906 (IS-906)   
1 27513U 02041A   26163.84777111  .00000022  00000+0  00000+0 0  9991
2 27513   5.7921  72.9756 0004656   2.7202 194.8044  1.00272055 86987
GALAXY 13 (HORIZONS-1)  
1 27954U 03044A   26164.29046497  .00000144  00000+0  00000+0 0  9995
2 27954   1.4098  83.9135 0002283 347.3239 144.9411  1.00269279 46534
INTELSAT 10-02          
1 28358U 04022A   26164.26265176  .00000001  00000+0  00000+0 0  9997
2 28358   0.0107 328.0771 0000154 237.9101 149.1356  1.00269830 80519
DIRECTV 8               
1 28659U 05019A   26164.20577536  .00000014  00000+0  00000+0 0  9992
2 28659   0.0236  65.5098 0002775  19.9538 131.0861  1.00270772 77035
GALAXY 28 (G-28)        
1 28702U 05022A   26164.25753840 -.00000190  00000+0  00000+0 0  9990
2 28702   3.2890  78.9815 0002875   1.2245 246.9832  1.00271413 51938
GALAXY 16 (G-16)        
1 29236U 06023A   26164.24324060 -.00000114  00000+0  00000+0 0  9998
2 29236   0.0469 145.8921 0002457 301.0834 163.1510  1.00270741 72930
DIRECTV 9S              
1 29494U 06043A   26164.21122451 -.00000102  00000+0  00000+0 0  9990
2 29494   2.4102  80.9486 0004857  10.5376 144.8958  1.00270883 51341
GALAXY 17 (G-17)        
1 31307U 07016B   26164.18864138 -.00000195  00000+0  00000+0 0  9990
2 31307   2.9617  79.9495 0004755  20.9790 143.4877  1.00269910 69762
INTELSAT 11 (IS-11)     
1 32253U 07044B   26164.00625595 -.00000275  00000+0  00000+0 0  9994
2 32253   3.5542  78.7182 0002152  90.3925 238.6992  0.99052544 68402
HORIZONS-2              
1 32388U 07063B   26164.23030464 -.00000243  00000+0  00000+0 0  9999
2 32388   2.5915  80.6732 0003748 359.5237 190.4820  1.00269750 67771
DIRECTV 11              
1 32729U 08013A   26163.45899139 -.00000111  00000+0  00000+0 0  9993
2 32729   0.0108 290.0835 0000311  85.8511 310.9148  1.00271638 45546
GALAXY 18 (G-18)        
1 32951U 08024A   26164.26147174  .00000000  00000+0  00000+0 0  9993
2 32951   0.0247   0.9595 0002689  78.0837 153.6544  1.00271338 45812
INTELSAT 25 (IS-25)     
1 33153U 08034A   26164.29036314 -.00000268  00000+0  00000+0 0  9992
2 33153   2.6993  80.4161 0003049  57.5662   7.1475  0.99036648 65654
GALAXY 19 (G-19)        
1 33376U 08045A   26164.24367394  .00000000  00000+0  00000+0 0  9994
2 33376   0.0204 347.2822 0002427 100.8054 164.1976  1.00270356 64863
FM-5                    
1 35493U 09034A   26163.88933397 -.00000186  00000+0  00000+0 0  9992
2 35493   0.0174 296.4738 0000824   8.6935 190.0568  1.00270229 46600
INTELSAT 14 (IS-14)     
1 36097U 09064A   26164.25398505 -.00000261  00000+0  00000+0 0  9998
2 36097   0.0127  31.8170 0002203  42.2959 233.9087  1.00270868 60566
INTELSAT 15 (IS-15)     
1 36106U 09067A   26164.06589378 -.00000172  00000+0  00000+0 0  9992
2 36106   0.0144  35.4832 0002047  49.8894 284.8876  1.00271160 41182
DIRECTV 12              
1 36131U 09075A   26163.95734970 -.00000090  00000+0  00000+0 0  9995
2 36131   0.0420 159.4842 0000251 218.8664 124.8531  1.00271896 46512
INTELSAT 16 (IS-16)     
1 36397U 10006A   26164.27171198 -.00000232  00000+0  00000+0 0  9996
2 36397   0.0112 344.3619 0001857 116.1658 182.6836  1.00270815 59612
XM-5                    
1 37185U 10053A   26164.20530581 -.00000010  00000+0  00000+0 0  9996
2 37185   0.0630 273.6387 0002974 286.2895  20.3118  1.00271885 57440
INTELSAT 17 (IS-17)     
1 37238U 10065B   26164.06208043  .00000012  00000+0  00000+0 0  9998
2 37238   0.0089  95.8537 0002557 353.1526 260.7197  1.00271000 53206
INTELSAT 28 (IS-28)     
1 37392U 11016A   26164.25658506 -.00000214  00000+0  00000+0 0  9995
2 37392   1.7957  82.6670 0003605   4.4676 235.1051  1.00270661 53249
INTELSAT 18 (IS-18)     
1 37834U 11056A   26164.22724774  .00000066  00000+0  00000+0 0  9992
2 37834   0.0212 287.9079 0002030 171.5968  63.8594  1.00271666 53772
INTELSAT 22 (IS-22)     
1 38098U 12011A   26164.13011318  .00000000  00000+0  00000+0 0  9998
2 38098   0.0359  47.3972 0001550  49.6985 283.2726  1.00271146  7145
INTELSAT 19 (IS-19)     
1 38356U 12030A   26164.22447440 -.00000044  00000+0  00000+0 0  9994
2 38356   0.0169   1.8153 0002841  87.5693  58.9687  1.00270472 50410
INTELSAT 20 (IS-20)     
1 38740U 12043A   26164.06260043 -.00000012  00000+0  00000+0 0  9994
2 38740   0.0008  59.8337 0001701 114.4985 178.1115  1.00271762 50700
